IRIDIUM 136             
1 42962U 17061H   23277.44762464  .00000200  00000+0  64363-4 0  9993
2 42962  86.3925  77.6204 0002311  86.9682 273.1778 14.34218690313404
